OBJECT_NAME,OBJECT_ID,EPOCH,MEAN_MOTION,ECCENTRICITY,INCLINATION,RA_OF_ASC_NODE,ARG_OF_PERICENTER,MEAN_ANOMALY,EPHEMERIS_TYPE,CLASSIFICATION_TYPE,NORAD_CAT_ID,ELEMENT_SET_NO,REV_AT_EPOCH,BSTAR,MEAN_MOTION_DOT,MEAN_MOTION_DDOT
FM-6,2013-058A,2026-07-18T05:10:38.483616,1.00271280,.00016402,0.0125,33.6223,149.6904,74.0091,0,U,39360,999,4638,0,-.24E-6,0
RADUGA-1M 3,2013-062A,2026-07-18T06:32:53.471040,1.00270657,.00020567,6.0358,71.9536,280.9699,76.3476,0,U,39375,999,4641,0,.143E-5,0
SES-8,2013-071A,2026-07-18T06:49:51.843648,1.00271701,.00027326,0.0484,251.1794,222.3575,20.0118,0,U,39460,999,4474,0,-.277E-5,0
INMARSAT 5-F1,2013-073A,2026-07-18T00:01:52.896288,1.00272596,.00002306,0.0175,53.3807,282.8601,22.6720,0,U,39476,999,4588,0,.19E-6,0
TKSAT-1 (TUPAC KATARI),2013-075A,2026-07-18T05:58:04.308672,1.00270152,.00024981,0.0373,229.2290,242.6764,186.4503,0,U,39481,999,4591,0,-.202E-5,0
EXPRESS-AM5,2013-077A,2026-07-17T08:48:25.579872,1.00269966,.0000083,0.0269,282.5793,209.4402,75.3038,0,U,39487,999,4666,0,-.29E-5,0
GSAT-14,2014-001A,2026-07-18T04:02:21.780096,1.00271713,.00019379,0.0183,90.2627,117.5319,222.7275,0,U,39498,999,4568,0,-.85E-6,0
THAICOM 6,2014-002A,2026-07-18T03:00:38.789280,1.00272844,.00043949,0.0548,108.3483,17.5597,293.6865,0,U,39500,999,4576,0,-.13E-5,0
TDRS 12,2014-004A,2026-07-18T05:42:14.726016,1.00271832,.00043107,4.0083,19.5950,202.2582,118.8918,0,U,39504,999,4458,0,-.279E-5,0
ABS-2,2014-006A,2026-07-18T04:02:21.780096,1.00269931,.00035146,0.0228,57.8697,44.4698,329.1498,0,U,39508,999,4558,0,0,0
ATHENA-FIDUS,2014-006B,2026-07-18T06:33:38.399904,1.00271427,.00014303,0.0310,100.2745,24.6712,307.3263,0,U,39509,999,4539,0,.146E-5,0
TURKSAT 4A,2014-007A,2026-07-17T23:44:19.212864,1.00269731,.00011394,0.0882,278.4781,336.5417,78.8636,0,U,39522,999,4527,0,.138E-5,0
EXPRESS-AT1,2014-010A,2026-07-17T23:51:11.054880,1.00309670,.00044565,0.3353,85.3272,56.6598,217.8780,0,U,39612,999,4512,0,-.21E-6,0
EXPRESS-AT2,2014-010B,2026-07-18T04:56:15.493632,1.00271053,.00002463,0.0205,54.5782,27.4779,344.0227,0,U,39613,999,4480,0,0,0
AMAZONAS 4A,2014-011A,2026-07-18T06:01:48.950400,1.00272691,.00046816,0.0593,183.9787,313.6964,174.8244,0,U,39616,999,4502,0,-.26E-5,0
ASTRA 5B,2014-011B,2026-07-18T06:29:38.781600,1.00269805,.00019959,0.0700,305.5527,179.2891,292.0954,0,U,39617,999,4497,0,.129E-5,0
IRNSS-1B,2014-017A,2026-07-17T16:57:12.386304,1.00276558,.00222538,28.8716,239.8770,191.9011,173.2190,0,U,39635,999,4510,0,.12E-5,0
LUCH-5V,2014-023A,2026-07-18T00:52:21.806400,1.00272656,.00020797,5.2074,69.4219,84.4887,249.7582,0,U,39727,999,4466,0,-.279E-5,0
KAZSAT-3,2014-023B,2026-07-18T04:57:00.421632,1.00273277,.00000797,0.0093,1.0834,2.0412,65.6319,0,U,39728,999,4276,0,.52E-6,0
EUTELSAT 3B,2014-030A,2026-07-18T06:23:46.845024,1.00271965,.00042348,0.0616,9.3115,106.8241,278.9607,0,U,39773,999,4437,0,.12E-6,0
ASIASAT 8 (AMOS-7),2014-046A,2026-07-18T06:52:59.044800,1.00272708,.00015639,0.0123,68.8010,32.3869,43.4502,0,U,40107,999,10246,0,-.341E-5,0
ASIASAT 6,2014-052A,2026-07-17T16:59:38.708160,1.00269372,.00008737,0.0167,78.9303,77.5351,153.8619,0,U,40141,999,4338,0,-.371E-5,0
OPTUS 10,2014-054A,2026-07-18T06:22:38.755776,1.00270218,.0001842,0.1213,8.7272,100.6540,78.3550,0,U,40146,999,4334,0,-.156E-5,0
MEASAT-3B,2014-054B,2026-07-18T02:36:38.656800,1.00272701,.00027797,0.0241,358.7733,79.9138,347.9025,0,U,40147,999,4321,0,-.25E-5,0
HIMAWARI-8,2014-060A,2026-07-18T07:02:58.087104,1.00270694,.00011833,0.0134,39.2614,125.2153,18.0266,0,U,40267,999,4307,0,-.284E-5,0
IRNSS-1C,2014-061A,2026-07-17T17:05:19.132800,1.00271928,.00220196,6.5925,88.3505,5.7430,180.8130,0,U,40269,999,4299,0,-.174E-5,0
INTELSAT 30 (IS-30),2014-062A,2026-07-18T05:55:49.523808,1.00272279,.00014804,0.0187,57.8070,330.9334,261.2174,0,U,40271,999,710,0,-.159E-5,0
ARSAT 1,2014-062B,2026-07-18T06:02:26.390112,1.00272843,.00019055,0.0571,272.0747,196.4561,206.3209,0,U,40272,999,4293,0,-.268E-5,0
EUTELSAT 53A,2014-064A,2026-07-17T07:15:38.921184,1.00272740,.0001786,0.0167,5.1076,194.9390,256.9847,0,U,40277,999,4187,0,.88E-6,0
GSAT-16,2014-078A,2026-07-17T23:47:56.366304,1.00270553,.0007502,0.0187,61.1258,34.4153,252.3163,0,U,40332,999,4241,0,.76E-6,0
DIRECTV 14,2014-078B,2026-07-18T05:53:30.220224,1.00270292,.0000304,0.0115,48.2921,325.1771,271.7095,0,U,40333,999,4235,0,-.133E-5,0
YAMAL 401,2014-082A,2026-07-17T03:26:08.725920,1.00270142,.000042,0.0134,63.7373,55.4085,317.3070,0,U,40345,999,4221,0,0,0
