FM-6                    
1 39360U 13058A   26199.21572319 -.00000024  00000+0  00000+0 0  9990
2 39360   0.0125  33.6223 0001640 149.6904  74.0091  1.00271280 46387
RADUGA-1M 3             
1 39375U 13062A   26199.27284110  .00000143  00000+0  00000+0 0  9997
2 39375   6.0358  71.9536 0002056 280.9699  76.3476  1.00270657 46414
SES-8                   
1 39460U 13071A   26199.28462782 -.00000277  00000+0  00000+0 0  9995
2 39460   0.0484 251.1794 0002732 222.3575  20.0118  1.00271701 44749
INMARSAT 5-F1           
1 39476U 13073A   26199.00130667  .00000019  00000+0  00000+0 0  9991
2 39476   0.0175  53.3807 0000230 282.8601  22.6720  1.00272596 45888
TKSAT-1 (TUPAC KATARI)  
1 39481U 13075A   26199.24866098 -.00000202  00000+0  00000+0 0  9994
2 39481   0.0373 229.2290 0002498 242.6764 186.4503  1.00270152 45914
EXPRESS-AM5             
1 39487U 13077A   26198.36696273 -.00000290  00000+0  00000+0 0  9997
2 39487   0.0269 282.5793 0000083 209.4402  75.3038  1.00269966 46665
GSAT-14                 
1 39498U 14001A   26199.16830764 -.00000085  00000+0  00000+0 0  9993
2 39498   0.0183  90.2627 0001937 117.5319 222.7275  1.00271713 45682
THAICOM 6               
1 39500U 14002A   26199.12544895 -.00000130  00000+0  00000+0 0  9992
2 39500   0.0548 108.3483 0004394  17.5597 293.6865  1.00272844 45766
TDRS 12                 
1 39504U 14004A   26199.23767044 -.00000279  00000+0  00000+0 0  9997
2 39504   4.0083  19.5950 0004310 202.2582 118.8918  1.00271832 44587
ABS-2                   
1 39508U 14006A   26199.16830764  .00000000  00000+0  00000+0 0  9996
2 39508   0.0228  57.8697 0003514  44.4698 329.1498  1.00269931 45588
ATHENA-FIDUS            
1 39509U 14006B   26199.27336111  .00000146  00000+0  00000+0 0  9997
2 39509   0.0310 100.2745 0001430  24.6712 307.3263  1.00271427 45390
TURKSAT 4A              
1 39522U 14007A   26198.98911126  .00000138  00000+0  00000+0 0  9996
2 39522   0.0882 278.4781 0001139 336.5417  78.8636  1.00269731 45276
EXPRESS-AT1             
1 39612U 14010A   26198.99387795 -.00000021  00000+0  00000+0 0  9992
2 39612   0.3353  85.3272 0004456  56.6598 217.8780  1.00309670 45123
EXPRESS-AT2             
1 39613U 14010B   26199.20573488  .00000000  00000+0  00000+0 0  9990
2 39613   0.0205  54.5782 0000246  27.4779 344.0227  1.00271053 44807
AMAZONAS 4A             
1 39616U 14011A   26199.25126100 -.00000260  00000+0  00000+0 0  9993
2 39616   0.0593 183.9787 0004681 313.6964 174.8244  1.00272691 45027
ASTRA 5B                
1 39617U 14011B   26199.27058775  .00000129  00000+0  00000+0 0  9991
2 39617   0.0700 305.5527 0001995 179.2891 292.0954  1.00269805 44979
IRNSS-1B                
1 39635U 14017A   26198.70639336  .00000120  00000+0  00000+0 0  9993
2 39635  28.8716 239.8770 0022253 191.9011 173.2190  1.00276558 45109
LUCH-5V                 
1 39727U 14023A   26199.03636350 -.00000279  00000+0  00000+0 0  9998
2 39727   5.2074  69.4219 0002079  84.4887 249.7582  1.00272656 44662
KAZSAT-3                
1 39728U 14023B   26199.20625488  .00000052  00000+0  00000+0 0  9996
2 39728   0.0093   1.0834 0000079   2.0412  65.6319  1.00273277 42762
EUTELSAT 3B             
1 39773U 14030A   26199.26651441  .00000012  00000+0  00000+0 0  9994
2 39773   0.0616   9.3115 0004234 106.8241 278.9607  1.00271965 44376
ASIASAT 8 (AMOS-7)      
1 40107U 14046A   26199.28679450 -.00000341  00000+0  00000+0 0  9992
2 40107   0.0123  68.8010 0001563  32.3869  43.4502  1.00272708102467
ASIASAT 6               
1 40141U 14052A   26198.70808690 -.00000371  00000+0  00000+0 0  9996
2 40141   0.0167  78.9303 0000873  77.5351 153.8619  1.00269372 43383
OPTUS 10                
1 40146U 14054A   26199.26572634 -.00000156  00000+0  00000+0 0  9992
2 40146   0.1213   8.7272 0001842 100.6540  78.3550  1.00270218 43344
MEASAT-3B               
1 40147U 14054B   26199.10878075 -.00000250  00000+0  00000+0 0  9999
2 40147   0.0241 358.7733 0002779  79.9138 347.9025  1.00272701 43213
HIMAWARI-8              
1 40267U 14060A   26199.29372786 -.00000284  00000+0  00000+0 0  9994
2 40267   0.0134  39.2614 0001183 125.2153  18.0266  1.00270694 43072
IRNSS-1C                
1 40269U 14061A   26198.71202700 -.00000174  00000+0  00000+0 0  9999
2 40269   6.5925  88.3505 0022019   5.7430 180.8130  1.00271928 42997
INTELSAT 30 (IS-30)     
1 40271U 14062A   26199.24710097 -.00000159  00000+0  00000+0 0  9998
2 40271   0.0187  57.8070 0001480 330.9334 261.2174  1.00272279  7108
ARSAT 1                 
1 40272U 14062B   26199.25169433 -.00000268  00000+0  00000+0 0  9993
2 40272   0.0571 272.0747 0001905 196.4561 206.3209  1.00272843 42933
EUTELSAT 53A            
1 40277U 14064A   26198.30253381  .00000088  00000+0  00000+0 0  9990
2 40277   0.0167   5.1076 0001786 194.9390 256.9847  1.00272740 41876
GSAT-16                 
1 40332U 14078A   26198.99162461  .00000076  00000+0  00000+0 0  9997
2 40332   0.0187  61.1258 0007502  34.4153 252.3163  1.00270553 42413
DIRECTV 14              
1 40333U 14078B   26199.24548866 -.00000133  00000+0  00000+0 0  9999
2 40333   0.0115  48.2921 0000304 325.1771 271.7095  1.00270292 42359
YAMAL 401               
1 40345U 14082A   26198.14315655  .00000000  00000+0  00000+0 0  9995
2 40345   0.0134  63.7373 0000420  55.4085 317.3070  1.00270142 42215
